P/2015 R2 (PANSTARRS),e,15.4839,168.5970,149.7956,4.487386,0.1036845,0.45295442,237.1481,09/17.0/2021,2000,g 14.5,4.0
# From MPC117068
C/2015 T2 (PANSTARRS),e,124.5574,51.0049,30.6548,1759,0.0000134,0.99605717,0.0000,05/18.1581/2017,2000,g  8.0,4.0
# From MPC 96280
P/2015 T3 (PANSTARRS),e,13.0937,120.5019,178.6330,4.326181,0.1095335,0.50818108,359.9227,12/21.0/2014,2000,g 14.0,4.0
# From MPC102953
P/2015 TO19 (Lemmon-PANSTARRS),e,6.4995,321.6512,89.1117,4.554812,0.1013908,0.35853162,204.9551,09/17.0/2021,2000,g 14.0,4.0
# From MPC110080
P/2015 TP200 (LINEAR),e,8.7794,7.0109,82.5349,7.270983,0.0502706,0.53525100,89.7739,09/17.0/2021,2000,g 11.0,4.0
# From MPC101097
C/2015 TQ209 (LINEAR),e,11.3076,223.4126,282.0724,533.8945,0.0000799,0.99734944,0.0000,08/24.8503/2016,2000,g 10.5,4.0
# From MPC115881
C/2015 V1 (PANSTARRS),e,139.2259,197.1659,179.6263,2053,0.0000106,0.99791852,0.0000,12/16.5697/2017,2000,g  6.5,4.0
# From MPC112390
C/2015 V2 (Johnson),h,06/11.5342/2017,49.8332,69.9437,164.9992,1.001821,1.646534,2000,5.0,4.0
# From MPC104791
C/2015 V4 (PANSTARRS),e,60.7981,179.9508,306.9085,18.45390,0.0124329,0.70432482,22.9519,09/17.0/2021,2000,g  8.5,4.0
# From MPC115881
C/2015 VL62 (Lemmon-Yeung-PANSTARRS),h,08/27.8637/2017,165.8193,95.1336,128.8778,1.001443,2.721439,2000,8.0,4.0
# From MPC101098
P/2015 W2 (Catalina),e,11.6072,294.2330,117.4842,7.293320,0.0500399,0.63436970,108.9594,09/17.0/2021,2000,g 13.0,4.0
# From MPEC 2021-N06
P/2015 X1 (PANSTARRS),e,12.1518,161.7626,218.8758,3.634021,0.1422731,0.41915756,309.4917,09/17.0/2021,2000,g 16.0,4.0
# From MPEC 2021-P47
C/2015 XY1 (Lemmon),h,04/26.8209/2018,148.8530,281.6099,196.1825,1.001605,7.922594,2000,5.5,4.0
# From MPC 97498
P/2015 X3 (PANSTARRS),e,24.3930,77.2956,306.6776,5.007660,0.0879532,0.43936914,196.1963,09/17.0/2021,2000,g 15.0,4.0
# From MPC119995
C/2015 X5 (PANSTARRS),h,12/28.5368/2017,124.3090,122.3409,27.6063,1.000817,6.795192,2000,7.5,4.0
# From MPC115881
P/2015 X6 (PANSTARRS),e,4.5646,106.9453,329.8370,2.753395,0.2157254,0.17270967,72.2576,09/17.0/2021,2000,g 16.0,4.0
# From MPEC 2021-P47
C/2016 A1 (PANSTARRS),h,11/21.9135/2017,121.2057,128.2044,10.1796,1.000505,5.319651,2000,6.0,4.0
# From MPC100282
P/2016 A2 (Christensen),e,26.4036,291.6175,141.3870,4.752616,0.0951273,0.27053605,217.4286,09/17.0/2021,2000,g 11.5,4.0
# From MPC115881
P/2016 A3 (PANSTARRS),e,8.5101,187.2428,341.0187,7.887403,0.0444942,0.38647940,71.3210,09/17.0/2021,2000,g 10.0,4.0
# From MPC102098
P/2016 A7 (PANSTARRS),e,16.6107,221.4953,352.6050,5.033303,0.0872820,0.56470240,177.4485,09/17.0/2021,2000,g 16.0,4.0
# From MPC106345
C/2016 A8 (LINEAR),e,148.2428,111.3691,130.5051,34.40294,0.0048844,0.94495885,9.0119,09/17.0/2021,2000,g 12.0,4.0
# From MPC107048
C/2016 B1 (NEOWISE),e,50.4294,232.0421,8.6835,431.7685,0.0001099,0.99254520,0.0000,12/04.1413/2016,2000,g  9.5,4.0
# From MPC109143
P/2016 BA14 (PANSTARRS),e,18.8938,180.5267,351.8878,3.024841,0.1873486,0.66516127,17.1759,09/17.0/2021,2000,g 21.0,4.0
# From MPC110494
C/2016 E1 (PANSTARRS),h,06/04.3452/2017,131.8787,233.1055,47.4767,1.006454,8.177070,2000,6.5,4.0
# From MPEC 2021-P47
P/2016 G1 (PANSTARRS),e,10.9707,204.0221,111.1474,2.582788,0.2374493,0.21111477,42.5089,09/17.0/2021,2000,g 14.0,4.0
# From MPEC 2017-D91
P/2016 J1-A (PANSTARRS),e,14.3281,199.8105,46.9733,3.172741,0.1744023,0.22789128,332.6810,09/17.0/2021,2000,g 16.5,4.0
# From MPEC 2017-A77
P/2016 J1-B (PANSTARRS),e,14.3308,199.8153,46.8644,3.172370,0.1744329,0.22774180,332.8140,09/17.0/2021,2000,g 17.0,4.0
# From MPC119995
C/2016 M1 (PANSTARRS),e,90.9636,92.2248,209.9243,23721,0.0000003,0.99990668,0.0000,08/10.5077/2018,2000,g  5.0,4.0
# From MPEC 2021-N06
C/2016 N4 (MASTER),e,72.6427,353.9911,55.9441,3459,0.0000048,0.99907577,0.0000,09/16.9420/2017,2000,g  8.5,4.0
# From MPEC 2021-P47
C/2016 N6 (PANSTARRS),e,105.8423,298.9799,162.6722,1227,0.0000229,0.99782976,0.0000,07/17.8849/2018,2000,g  7.0,4.0
# From MPC102099
P/2016 P1 (PANSTARRS),e,24.4562,319.5651,270.1102,3.193269,0.1727232,0.28905314,17.0470,09/17.0/2021,2000,g 15.0,4.0
# From MPC102099
C/2016 P4 (PANSTARRS),e,29.8803,320.7232,356.2914,425.6120,0.0001122,0.98613265,0.0000,10/18.9490/2016,2000,g 10.5,4.0
# From MPEC 2021-R75
C/2016 Q2 (PANSTARRS),h,05/12.0041/2021,109.3883,322.2952,84.5367,1.001149,7.081846,2000,6.0,4.0
# From MPC102955
C/2016 Q4 (Kowalski),e,7.2539,271.2942,99.4959,16.96341,0.0141070,0.58215285,18.7217,09/17.0/2021,2000,g  7.0,4.0
# From MPEC 2021-N06
C/2016 R2 (PANSTARRS),e,58.2548,80.5486,33.1308,489.0185,0.0000911,0.99468196,0.0000,05/08.9890/2018,2000,g  7.0,4.0
# From MPC102099
C/2016 R3 (Borisov),e,53.0208,78.8548,118.1382,196.3220,0.0003583,0.99768399,0.0000,10/09.6853/2016,2000,g 18.0,4.0
# From MPC109144
P/2016 R4 (Gibbs),e,10.8765,168.2637,174.0583,5.331628,0.0800598,0.47642714,150.6842,09/17.0/2021,2000,g 12.5,4.0
# From MPC105543
P/2016 S1 (PANSTARRS),e,94.6948,227.5804,273.2809,8.278139,0.0413814,0.70995132,68.1173,09/17.0/2021,2000,g 12.0,4.0
# From MPC105238
C/2016 T1 (Matheny),e,129.8513,56.3783,137.5181,125.9610,0.0006972,0.98169268,0.0000,02/01.5633/2017,2000,g 14.5,4.0
# From MPC107685
C/2016 T2 (Matheny),e,81.4099,339.1962,92.1756,99.37795,0.0009949,0.98086834,0.0000,12/29.7599/2016,2000,g 14.5,4.0
# From MPC110082
C/2016 T3 (PANSTARRS),e,22.6904,271.7092,194.6028,129.7780,0.0006667,0.97962415,0.0000,09/06.4360/2017,2000,g 10.5,4.0
# From MPC103847
C/2016 U1 (NEOWISE),h,01/13.5696/2017,46.2235,61.6288,162.7955,1.000401,0.324567,2000,17.0,4.0
# From MPC106345
C/2016 VZ18 (PANSTARRS),e,23.9909,98.9243,36.3771,159.3664,0.0004899,0.99426631,0.0000,03/05.0293/2017,2000,g 19.5,4.0
# From MPC106345
P/2016 WM48 (Lemmon),e,117.4893,59.9098,36.0956,8.165146,0.0422433,0.78367109,70.4048,09/17.0/2021,2000,g 15.0,4.0
# From MPEC 2021-P47
C/2016 X1 (Lemmon),e,26.4530,256.3900,224.4804,1244,0.0000225,0.99392170,0.0000,04/28.0772/2019,2000,g  6.0,4.0
# From MPC108594
C/2017 A1 (PANSTARRS),e,49.7980,121.0362,1.9701,75.43269,0.0015044,0.96966999,2.3845,09/17.0/2021,2000,g 13.0,4.0
# From MPC108594
C/2017 A3 (Elenin),e,98.5171,97.8778,303.9546,43.39031,0.0034484,0.91144468,5.8278,09/17.0/2021,2000,g  9.5,4.0
# From MPC114598
C/2017 AB5 (PANSTARRS),e,32.4491,42.6221,78.3064,2226,0.0000094,0.99586341,0.0000,02/14.7330/2018,2000,g  5.5,4.0
# From MPEC 2021-R75
C/2017 B3 (LINEAR),h,02/02.3942/2019,54.1630,2.1774,284.8092,1.001260,3.924724,2000,6.0,4.0
# From MPC103847
P/2017 B4 (PANSTARRS),e,20.0584,121.4578,11.0197,4.410520,0.1064068,0.36495152,359.9130,01/05.0/2017,2000,g 14.5,4.0
# From MPC104793
C/2017 C1 (NEOWISE),e,65.7692,357.5870,110.0103,20.55840,0.0105735,0.92721223,18.0003,09/17.0/2021,2000,g 18.0,4.0
# From MPC107685
C/2017 C2 (PANSTARRS),e,118.5848,249.7305,138.5381,95.36040,0.0010584,0.97461076,0.0000,01/21.2510/2017,2000,g 14.0,4.0
# From MPC104793
P/2017 D1 (Fuls),e,20.7571,82.1806,7.9983,4.829461,0.0928659,0.43629738,177.5535,09/17.0/2021,2000,g 14.0,4.0
# From MPC112391
C/2017 D2 (Barros),e,31.2586,330.9434,334.5921,8104,0.0000014,0.99969224,0.0000,07/14.8620/2017,2000,g 11.0,4.0
# From MPC114598
C/2017 D3 (ATLAS),h,04/27.4782/2017,125.5896,186.7036,340.8441,1.002220,4.969578,2000,8.0,4.0
# From MPC110495
P/2017 D4 (PANSTARRS),e,10.5340,264.9373,212.2302,7.557727,0.0474370,0.62833893,87.2041,09/17.0/2021,2000,g 13.0,4.0
# From MPC104794
C/2017 D5 (PANSTARRS),e,131.0357,92.6822,287.6507,113.6227,0.0008138,0.98102629,0.0000,01/09.7353/2017,2000,g 16.0,4.0
# From MPC106346
C/2017 E1 (Borisov),h,04/10.5944/2017,14.5735,142.5575,152.7564,1.003201,0.904584,2000,14.0,4.0
# From MPEC 2021-P47
C/2017 E3 (PANSTARRS),h,06/07.6206/2017,70.6521,220.7726,334.4957,1.006235,5.938134,2000,6.5,4.0
# From MPC105239
C/2017 E4 (Lovejoy),h,04/23.5399/2017,88.0155,222.8820,87.0697,1.001491,0.491145,2000,17.0,4.0
# From MPC111769
C/2017 F1 (Lemmon),h,11/29.4783/2017,146.4591,158.7891,64.7323,1.002645,4.496361,2000,10.5,4.0
# From MPC114598
C/2017 F2 (PANSTARRS),h,11/26.6605/2017,42.5379,38.6862,134.9902,1.002748,6.930345,2000,7.5,4.0
# From MPC104794
P/2017 G1 (PANSTARRS),e,4.7766,249.6367,224.4768,7.282666,0.0501497,0.65297253,98.7540,09/17.0/2021,2000,g 13.5,4.0
# From MPC108595
P/2017 G2 (PANSTARRS),e,47.9482,79.7933,105.5201,8.060977,0.0430648,0.64777943,67.1580,09/17.0/2021,2000,g 13.0,4.0
# From MPEC 2021-P47
C/2017 G3 (PANSTARRS),e,159.0448,279.4677,73.0778,315.4759,0.0001759,0.99180505,0.0000,04/16.2134/2017,2000,g 14.0,4.0
# From MPC115882
C/2017 K1 (PANSTARRS),h,03/17.9314/2018,154.0186,225.6925,4.4355,1.003100,7.289076,2000,7.0,4.0
# From MPEC 2021-R75
C/2017 K2 (PANSTARRS),h,12/19.7179/2022,87.5550,88.2411,236.1928,1.000619,1.797253,2000,1.5,4.0
# From MPEC 2021-N06
P/2017 K3 (Gasparovic),e,4.2730,354.2870,253.4435,5.583242,0.0747093,0.57997159,117.3337,09/17.0/2021,2000,g 14.5,4.0
# From MPC114598
C/2017 K4 (ATLAS),e,16.6774,298.8783,15.2901,28.61773,0.0064380,0.90724543,8.6749,09/17.0/2021,2000,g 10.0,4.0
# From MPEC 2021-P47
C/2017 K5 (PANSTARRS),h,03/27.0245/2020,82.2330,102.3715,172.0324,1.005810,7.681732,2000,5.0,4.0
# From MPC114599
C/2017 K6 (Jacques),e,57.2377,84.9925,303.7540,1112,0.0000266,0.99820454,0.0000,01/03.6635/2018,2000,g 11.0,4.0
# From MPEC 2021-P47
C/2017 M3 (PANSTARRS),e,77.5804,7.0315,110.3049,166.7297,0.0004578,0.97208459,0.0000,04/28.1757/2017,2000,g 10.5,4.0
# From MPEC 2021-P47
C/2017 M4 (ATLAS),h,01/17.9560/2019,105.6486,65.9026,167.6157,1.001347,3.253685,2000,6.0,4.0
# From MPC118841
C/2017 M5 (TOTAS),h,06/04.4668/2018,15.8717,216.2872,92.8031,1.005532,5.997588,2000,6.5,4.0
# From MPC114599
C/2017 O1 (ASASSN),e,39.9442,25.7362,20.8341,361.2591,0.0001435,0.99586878,0.0000,10/15.2199/2017,2000,g 11.0,4.0
# From MPC114599
P/2017 P1 (PANSTARRS),e,7.6935,221.3900,122.4393,7.902315,0.0443683,0.31100416,52.5472,09/17.0/2021,2000,g 10.0,4.0
# From MPC114599
C/2017 P2 (PANSTARRS),e,50.0489,165.4608,132.4339,2420,0.0000083,0.99897958,0.0000,12/06.5015/2017,2000,g 10.0,4.0
# From MPC114599
